SL-14 R/B               
1 19574U 88093B   25074.57484750  .00001334  00000+0  15240-3 0  9997
2 19574  82.5341  19.0036 0021728 142.5395  30.9434 14.85176085968819
SL-16 R/B               
1 19650U 88102B   25074.57662186  .00000072  00000+0  60754-4 0  9993
2 19650  70.9998 187.0625 0015185 205.7473 154.2896 14.16080435876055
INTERCOSMOS 24          
1 20261U 89080A   25074.59248995  .00002517  00000+0  73710-3 0  9990
2 20261  82.6112 337.9148 1191859  45.7053 323.5769 12.58824146621607
SL-14 R/B               
1 20262U 89080C   25074.59204869  .00000795  00000+0  24293-3 0  9991
2 20262  82.5946  43.7505 1230097 285.4768  61.4003 12.50224273615277
DELTA 1 R/B             
1 20323U 89089B   25074.62461530  .00000955  00000+0  24668-3 0  9996
2 20323  97.1158 333.4082 0069526 175.1497 185.0389 14.50263517843685
ARIANE 40 R/B           
1 20443U 90005H   25074.15726536  .00000871  00000+0  29282-3 0  9991
2 20443  98.3563 139.5239 0009894 199.3276 160.7538 14.39522174841076
DELTA 2 R/B(1)          
1 20453U 90008B   25074.03345486  .00030080  00000+0  77631-3 0  9999
2 20453  35.6130 315.6034 0153871 242.1261 116.3804 15.26946695870695
COSMOS 2058             
1 20465U 90010A   25074.38731059  .00010066  00000+0  65430-3 0  9994
2 20465  82.4892  40.1453 0012997 102.3634 257.9049 15.07825222888033
SL-14 R/B               
1 20466U 90010B   25074.54932324  .00001203  00000+0  14422-3 0  9999
2 20466  82.4995 244.5511 0020972  46.4953 313.8001 14.83114373875247
SL-14 R/B               
1 20511U 90018B   25074.62837362  .00001327  00000+0  16521-3 0  9992
2 20511  82.5239 198.5929 0016240 188.2265 171.8685 14.81704833869400
HST                     
1 20580U 90037B   25073.98439346  .00013716  00000+0  54701-3 0  9994
2 20580  28.4685 322.8191 0002140 110.8019 249.2805 15.23655376718293
SL-16 R/B               
1 20625U 90046B   25074.15047456 -.00000047  00000+0  23172-6 0  9996
2 20625  71.0016 332.9670 0012457 138.2575 221.9500 14.14947233797530
COSMOS 2084             
1 20663U 90055A   25074.55527287  .00005910  00000+0  42821-3 0  9999
2 20663  62.7893 117.8952 0075168 145.0625 215.5441 15.02770715882293
SL-6 R/B(2)             
1 20666U 90055D   25074.58014575  .00005412  00000+0  42566-3 0  9999
2 20666  62.7854  32.9537 0041902 173.9607 186.2006 15.01322797884237
SL-8 R/B                
1 20775U 90078B   25074.46548656  .00038814  00000+0  13251-2 0  9994
2 20775  82.9107 210.6407 0416862 129.5416 234.3424 14.74766477756109
SL-8 R/B                
1 21088U 91006B   25074.51387786  .00000219  00000+0  20539-3 0  9991
2 21088  82.9380  77.2407 0021627 324.5122 151.3320 13.77436622714621
OKEAN-3                 
1 21397U 91039A   25074.19328988  .00006398  00000+0  48607-3 0  9993
2 21397  82.5199 324.3757 0016342 111.0571 249.2403 15.01911764811022
COSMOS 2151             
1 21422U 91042A   25074.54043452  .00004594  00000+0  38395-3 0  9994
2 21422  82.4947  69.5537 0012332 183.9426 176.1702 14.98257306809383
SL-14 R/B               
1 21423U 91042B   25074.60796816  .00001140  00000+0  14261-3 0  9991
2 21423  82.4957 196.8108 0016629 345.8099  14.2645 14.81413779799905
ERS-1                   
1 21574U 91050A   25074.56061987  .00000775  00000+0  26409-3 0  9996
2 21574  98.7939  78.7185 0032019 185.3195 174.7656 14.39083266764059
ARIANE 40 R/B           
1 21610U 91050F   25074.56266028  .00000955  00000+0  30086-3 0  9996
2 21610  98.2510 134.2634 0004389  87.5161 272.6532 14.42508188767213
INTERCOSMOS 25          
1 21819U 91086A   25074.61770044  .00005692  00000+0  11168-2 0  9992
2 21819  82.6088 166.8871 1494014 170.2262 193.1715 12.10488649453210
SL-8 R/B                
1 21876U 92008B   25074.64820928  .00000143  00000+0  13135-3 0  9993
2 21876  82.9312 174.7793 0035785  59.1008  51.9969 13.75907363660049
SL-8 R/B                
1 21938U 92020B   25074.50975579  .00000009  00000+0 -63179-5 0  9991
2 21938  82.9276  60.5134 0028095 218.3296 261.7729 13.75489097652058
USA 81                  
1 21949U 92023A   25074.42878054  .00000458  00000+0  16297-3 0  9991
2 21949  85.0120 338.6896 0002769  91.1729 268.9781 14.32190448 43362
COSMOS 2219             
1 22219U 92076A   25074.37273692  .00000177  00000+0  11792-3 0  9994
2 22219  71.0613  49.1539 0017221  21.9039 338.2815 14.14007706667586
SL-16 R/B               
1 22220U 92076B   25074.61997995  .00000209  00000+0  12843-3 0  9996
2 22220  70.9986 224.7024 0015031 280.2834 156.2795 14.16780197670975
COSMOS 2221             
1 22236U 92080A   25074.61769885  .00004498  00000+0  41567-3 0  9992
2 22236  82.5007 262.4374 0013965 321.7822  38.2407 14.94315589727139
SL-16 R/B               
1 22285U 92093B   25074.30210150  .00000232  00000+0  14329-3 0  9990
2 22285  71.0219  38.6708 0003277 166.1699 193.9514 14.15370435662302
COSMOS 2228             
1 22286U 92094A   25074.44758450  .00005862  00000+0  53100-3 0  9991
2 22286  82.5181 220.6826 0019793  73.0597 287.2792 14.95067574722346
SL-16 R/B               
1 22566U 93016B   25074.59002893  .00000455  00000+0  25817-3 0  9993
2 22566  71.0052 249.3565 0009629 161.3227 198.8251 14.15239535651363
COSMOS 2242             
1 22626U 93024A   25074.55783639  .00005713  00000+0  52470-3 0  9996
2 22626  82.5161 249.6259 0018036  74.3485 285.9724 14.94549609726710
SL-16 R/B               
1 22803U 93059B   25074.35013983 -.00000057  00000+0 -46874-5 0  9998
2 22803  70.9902  48.8555 0015811  30.9947 329.2107 14.17150313628621
ARIANE 40 R/B           
1 22830U 93061H   25074.59593724  .00000656  00000+0  25752-3 0  9996
2 22830  98.5354 144.6364 0009583 265.2360  94.7730 14.32571158642681
COSMOS 2278             
1 23087U 94023A   25074.59036786  .00000163  00000+0  11003-3 0  9997
2 23087  71.0543 206.3372 0010436 228.1403 131.8830 14.14270496594032
SL-16 R/B               
1 23088U 94023B   25074.52181297 -.00000040  00000+0  42099-5 0  9995
2 23088  70.9984 105.1359 0001732 171.4841 188.6311 14.14951665595282
SL-16 R/B               
1 23343U 94074B   25074.59495744  .00001217  00000+0  17193-3 0  9998
2 23343  97.7518 114.2107 0005568 319.9032 155.2583 14.78873208634168
SL-16 R/B               
1 23405U 94077B   25074.57279197 -.00000124  00000+0 -38866-4 0  9999
2 23405  70.9840  27.9614 0003801 311.9676  48.1122 14.15495659565416
ARIANE 40+ R/B          
1 23561U 95021B   25074.63378562  .00000835  00000+0  28242-3 0  9998
2 23561  98.4916 145.0929 0007792 132.2225 349.9841 14.39417575567583
SL-16 R/B               
1 23705U 95058B   25074.63259133  .00000378  00000+0  21798-3 0  9991
2 23705  71.0208 214.0514 0014294 301.5715  58.4011 14.15431685517040
SL-16 R/B               
1 24298U 96051B   25074.60462072 -.00000113  00000+0 -34726-4 0  9993
2 24298  70.7748 215.1055 0018001 300.9270  59.0080 14.12433565470940
ORBVIEW 2 (SEASTAR)     
1 24883U 97037A   25074.40992041  .00000941  00000+0  34559-3 0  9990
2 24883  98.8107 225.1962 0002872  57.4619 302.6843 14.35134271456932
SL-16 R/B               
1 25400U 98043G   25074.55146048  .00000256  00000+0  12634-3 0  9997
2 25400  98.7789  21.4374 0009522 343.0309  17.0551 14.25935446387800
SL-16 R/B               
1 25407U 98045B   25074.60727200 -.00000086  00000+0 -19108-4 0  9994
2 25407  71.0106 216.6736 0009020 225.5976 134.4409 14.16119566376262
ISS (ZARYA)             
1 25544U 98067A   25074.69349537  .00017315  00000+0  31010-3 0  9998
2 25544  51.6374  50.0930 0006680  25.6143 327.9954 15.50039700500651
CZ-4B R/B               
1 25732U 99025C   25074.64164367  .00000222  00000+0  12860-3 0  9994
2 25732  98.7129 121.4149 0036101 297.5945 173.4927 14.18152337337271
OKEAN-O                 
1 25860U 99039A   25074.57373687  .00001837  00000+0  25238-3 0  9996
2 25860  97.9955 132.1028 0001906  84.9476 275.1953 14.79556768381279
SL-16 R/B               
1 25861U 99039B   25074.56832995  .00001542  00000+0  20541-3 0  9993
2 25861  98.0487 128.1431 0014529 346.9096  13.1737 14.81072846383690
DELTA 2 R/B             
1 25876U 99041E   25074.63685128  .00003794  00000+0  65142-3 0  9991
2 25876  51.7616 293.7334 0508888   9.9721 351.0864 14.10404813312337
HELIOS 1B               
1 25977U 99064A   25074.61513100  .00003363  00000+0  39097-3 0  9998
2 25977  98.2079 321.0580 0002145 115.3990 244.7446 14.86047375631901
TERRA                   
1 25994U 99068A   25074.60749799  .00001299  00000+0  27679-3 0  9994
2 25994  98.0094 135.7112 0001544 199.0580 319.6582 14.60535982342654
SL-16 R/B               
1 26070U 00006B   25074.60056470  .00000055  00000+0  52165-4 0  9999
2 26070  71.0019 132.8384 0016458 359.8425   0.2690 14.15754848297736
TITAN 4B R/B            
1 26474U 00047B   25074.44788922  .00008197  00000+0  55667-3 0  9992
2 26474  67.9926 328.0694 0039375  84.1700 276.3934 15.06188039338754
ENVISAT                 
1 27386U 02009A   25074.47220355  .00000420  00000+0  15024-3 0  9993
2 27386  98.3237  32.7472 0001361  83.4581  25.6958 14.38864066207511
IDEFIX & ARIANE 42P R/B 
1 27422U 02021B   25074.55632092  .00000816  00000+0  32838-3 0  9993
2 27422  98.5545  13.2707 0012115 159.3409 200.8266 14.30682640192668
AQUA                    
1 27424U 02022A   25074.61844413  .00002980  00000+0  61804-3 0  9994
2 27424  98.3683  31.8635 0001362  52.2399 121.1979 14.60946305216283
CZ-4B R/B               
1 27432U 02024C   25074.60532045  .00000152  00000+0  10160-3 0  9997
2 27432  98.9366 123.7290 0049466 322.9890 152.1482 14.14458080178472
MIDORI II (ADEOS-II)    
1 27597U 02056A   25074.56755628  .00000892  00000+0  37075-3 0  9998
2 27597  98.7285  26.7333 0001208  34.0066 326.1192 14.28921776159001
H-2A R/B                
1 27601U 02056E   25074.55042784  .00000735  00000+0  27346-3 0  9991
2 27601  98.2695  44.7970 0071129 151.2406 324.1751 14.33389351162650
